{
    "links": {
        "self": "http://www.neowsapp.com/rest/v1/neo/3744324?api_key=iIulBulltgU6a56xZRHN4H3l9WmuAYTsLGpBGhQ2"
    },
    "id": "3744324",
    "neo_reference_id": "3744324",
    "name": "(2016 CD248)",
    "designation": "2016 CD248",
    "nasa_jpl_url": "http://ssd.jpl.nasa.gov/sbdb.cgi?sstr=3744324",
    "absolute_magnitude_h": 22.2,
    "estimated_diameter": {
        "kilometers": {
            "estimated_diameter_min": 0.096506147,
            "estimated_diameter_max": 0.2157943048
        },
        "meters": {
            "estimated_diameter_min": 96.5061469579,
            "estimated_diameter_max": 215.7943048444
        },
        "miles": {
            "estimated_diameter_min": 0.059966121,
            "estimated_diameter_max": 0.134088323
        },
        "feet": {
            "estimated_diameter_min": 316.6212271853,
            "estimated_diameter_max": 707.9865871058
        }
    },
    "is_potentially_hazardous_asteroid": false,
    "close_approach_data": [
        {
            "close_approach_date": "2015-12-28",
            "close_approach_date_full": "2015-Dec-28 16:14",
            "epoch_date_close_approach": 1451319240000,
            "relative_velocity": {
                "kilometers_per_second": "10.715942464",
                "kilometers_per_hour": "38577.3928704328",
                "miles_per_hour": "23970.491697742"
            },
            "miss_distance": {
                "astronomical": "0.2490043935",
                "lunar": "96.8627090715",
                "kilometers": "37250526.888241845",
                "miles": "23146404.095333661"
            },
            "orbiting_body": "Earth"
        },
        {
            "close_approach_date": "2021-02-14",
            "close_approach_date_full": "2021-Feb-14 14:34",
            "epoch_date_close_approach": 1613313240000,
            "relative_velocity": {
                "kilometers_per_second": "27.8514508429",
                "kilometers_per_hour": "100265.2230343482",
                "miles_per_hour": "62300.910390426"
            },
            "miss_distance": {
                "astronomical": "0.4898562239",
                "lunar": "190.5540710971",
                "kilometers": "73281447.701683093",
                "miles": "45534980.1167409634"
            },
            "orbiting_body": "Earth"
        }
    ],
    "orbital_data": {
        "orbit_id": "7",
        "orbit_determination_date": "2017-04-06 08:28:11",
        "first_observation_date": "2016-02-13",
        "last_observation_date": "2016-02-29",
        "data_arc_in_days": 16,
        "observations_used": 23,
        "orbit_uncertainty": "8",
        "minimum_orbit_intersection": ".0324563",
        "jupiter_tisserand_invariant": "3.744",
        "epoch_osculation": "2457433.5",
        "eccentricity": ".5727654731276763",
        "semi_major_axis": "1.86536581364445",
        "inclination": "13.46190174989274",
        "ascending_node_longitude": "359.1551153859451",
        "orbital_period": "930.5601418706193",
        "perihelion_distance": ".7969486808361937",
        "perihelion_argument": "55.32989138435388",
        "aphelion_distance": "2.933782946452707",
        "perihelion_time": "2457355.394746899979",
        "mean_anomaly": "30.21609227694274",
        "mean_motion": ".3868637649537892",
        "equinox": "J2000",
        "orbit_class": {
            "orbit_class_type": "APO",
            "orbit_class_description": "Near-Earth asteroid orbits which cross the Earth’s orbit similar to that of 1862 Apollo",
            "orbit_class_range": "a (semi-major axis) > 1.0 AU; q (perihelion) < 1.017 AU"
        }
    },
    "is_sentry_object": false
}